start=new Date('2022-08-05T00:00:00.000Z').valueOf();
sats=[{"GP_ID":"209587034","RCS_SIZE":"LARGE","OBJECT_ID":"2020-035J","REF_FRAME":"TEME","BSTAR":"0.00153320000000","OBJECT_TYPE":"PAYLOAD","CLASSIFICATION_TYPE":"U","INCLINATION":"53.0558","ARG_OF_PERICENTER":"75.8004","MEAN_MOTION":"15.06283725","TIME_SYSTEM":"UTC","SEMIMAJOR_AXIS":"6925.705","EPOCH":"2022-08-04T22:53:44.386944","MEAN_ANOMALY":"284.3236","TLE_LINE2":"2 45665  53.0558 199.7187 0002269  75.8004 284.3236 15.06283725120863","MEAN_ELEMENT_THEORY":"SGP4","SITE":"AFETR","LAUNCH_DATE":"2020-06-04","ECCENTRICITY":"0.00022690","MEAN_MOTION_DDOT":"0.0000000000000","MEAN_MOTION_DOT":"0.00022558","APOAPSIS":"549.141","DECAY_DATE":null,"EPHEMERIS_TYPE":"0","CENTER_NAME":"EARTH","NORAD_CAT_ID":"45665","PERIOD":"95.600","TLE_LINE1":"1 45665U 20035J   22216.95398596  .00022558  00000-0  15332-2 0  9991","FILE":"3529274","ELEMENT_SET_NO":"999","RA_OF_ASC_NODE":"199.7187","REV_AT_EPOCH":"12086","COUNTRY_CODE":"US","PERIAPSIS":"545.999","OBJECT_NAME":"STARLINK-1448"},{"RCS_SIZE":"LARGE","GP_ID":"209566365","INCLINATION":"53.0548","CLASSIFICATION_TYPE":"U","OBJECT_TYPE":"PAYLOAD","BSTAR":"0.00005363800000","REF_FRAME":"TEME","OBJECT_ID":"2020-035K","MEAN_MOTION":"15.06385734","ARG_OF_PERICENTER":"81.1922","EPOCH":"2022-08-04T18:12:25.631136","MEAN_ANOMALY":"278.9230","SEMIMAJOR_AXIS":"6925.392","TIME_SYSTEM":"UTC","MEAN_MOTION_DDOT":"0.0000000000000","LAUNCH_DATE":"2020-06-04","ECCENTRICITY":"0.00014450","SITE":"AFETR","MEAN_ELEMENT_THEORY":"SGP4","TLE_LINE2":"2 45666  53.0548 200.5742 0001445  81.1922 278.9230 15.06385734120434","NORAD_CAT_ID":"45666","CENTER_NAME":"EARTH","EPHEMERIS_TYPE":"0","DECAY_DATE":null,"APOAPSIS":"548.258","MEAN_MOTION_DOT":"0.00000517","ELEMENT_SET_NO":"999","FILE":"3529192","TLE_LINE1":"1 45666U 20035K   22216.75862999  .00000517  00000-0  53638-4 0  9997","PERIOD":"95.593","OBJECT_NAME":"STARLINK-1449","PERIAPSIS":"546.257","REV_AT_EPOCH":"12043","COUNTRY_CODE":"US","RA_OF_ASC_NODE":"200.5742"},{"ARG_OF_PERICENTER":"69.1579","MEAN_MOTION":"15.06406634","TIME_SYSTEM":"UTC","SEMIMAJOR_AXIS":"6925.328","MEAN_ANOMALY":"290.9573","EPOCH":"2022-08-04T08:43:07.626144","GP_ID":"209557331","RCS_SIZE":"LARGE","OBJECT_ID":"2020-035L","REF_FRAME":"TEME","BSTAR":"0.00008858800000","OBJECT_TYPE":"PAYLOAD","INCLINATION":"53.0551","CLASSIFICATION_TYPE":"U","PERIOD":"95.592","TLE_LINE1":"1 45667U 20035L   22216.36328271  .00001038  00000-0  88588-4 0  9996","FILE":"3529060","ELEMENT_SET_NO":"999","RA_OF_ASC_NODE":"202.3868","REV_AT_EPOCH":"12077","COUNTRY_CODE":"US","PERIAPSIS":"546.134","OBJECT_NAME":"STARLINK-1450","TLE_LINE2":"2 45667  53.0551 202.3868 0001530  69.1579 290.9573 15.06406634120771","MEAN_ELEMENT_THEORY":"SGP4","SITE":"AFETR","LAUNCH_DATE":"2020-06-04","ECCENTRICITY":"0.00015300","MEAN_MOTION_DDOT":"0.0000000000000","MEAN_MOTION_DOT":"0.00001038","APOAPSIS":"548.253","DECAY_DATE":null,"EPHEMERIS_TYPE":"0","CENTER_NAME":"EARTH","NORAD_CAT_ID":"45667"},{"REF_FRAME":"TEME","OBJECT_ID":"2020-035M","OBJECT_TYPE":"PAYLOAD","BSTAR":"-0.00003020800000","INCLINATION":"53.0537","CLASSIFICATION_TYPE":"U","RCS_SIZE":"LARGE","GP_ID":"209586784","TIME_SYSTEM":"UTC","SEMIMAJOR_AXIS":"6925.361","MEAN_ANOMALY":"296.9627","EPOCH":"2022-08-04T22:15:13.553280","ARG_OF_PERICENTER":"63.1552","MEAN_MOTION":"15.06395907","APOAPSIS":"548.516","DECAY_DATE":null,"MEAN_MOTION_DOT":"-0.00000732","CENTER_NAME":"EARTH","EPHEMERIS_TYPE":"0","NORAD_CAT_ID":"45668","MEAN_ELEMENT_THEORY":"SGP4","TLE_LINE2":"2 45668  53.0537 199.8483 0001863  63.1552 296.9627 15.06395907120870","ECCENTRICITY":"0.00018630","LAUNCH_DATE":"2020-06-04","SITE":"AFETR","MEAN_MOTION_DDOT":"0.0000000000000","RA_OF_ASC_NODE":"199.8483","PERIAPSIS":"545.936","COUNTRY_CODE":"US","REV_AT_EPOCH":"12087","OBJECT_NAME":"STARLINK-1451","PERIOD":"95.592","FILE":"3529274","TLE_LINE1":"1 45668U 20035M   22216.92724020 -.00000732  00000-0 -30208-4 0  9999","ELEMENT_SET_NO":"999"},{"EPHEMERIS_TYPE":"0","CENTER_NAME":"EARTH","MEAN_MOTION_DOT":"0.00000902","APOAPSIS":"548.461","DECAY_DATE":null,"NORAD_CAT_ID":"45669","SITE":"AFETR","LAUNCH_DATE":"2020-06-04","ECCENTRICITY":"0.00017690","TLE_LINE2":"2 45669  53.0536 202.2960 0001769  66.5461 293.5714 15.06392707120785","MEAN_ELEMENT_THEORY":"SGP4","MEAN_MOTION_DDOT":"0.0000000000000","RA_OF_ASC_NODE":"202.2960","OBJECT_NAME":"STARLINK-1452","REV_AT_EPOCH":"12078","COUNTRY_CODE":"US","PERIAPSIS":"546.011","TLE_LINE1":"1 45669U 20035N   22216.37898604  .00000902  00000-0  79459-4 0  9997","FILE":"3529060","PERIOD":"95.593","ELEMENT_SET_NO":"999","OBJECT_ID":"2020-035N","REF_FRAME":"TEME","CLASSIFICATION_TYPE":"U","INCLINATION":"53.0536","BSTAR":"0.00007945900000","OBJECT_TYPE":"PAYLOAD","GP_ID":"209556830","RCS_SIZE":"LARGE","EPOCH":"2022-08-04T09:05:44.393856","MEAN_ANOMALY":"293.5714","SEMIMAJOR_AXIS":"6925.371","TIME_SYSTEM":"UTC","MEAN_MOTION":"15.06392707","ARG_OF_PERICENTER":"66.5461"},{"TLE_LINE1":"1 45670U 20035P   22216.90145330  .00000498  00000-0  52332-4 0  9990","FILE":"3529274","PERIOD":"95.592","ELEMENT_SET_NO":"999","RA_OF_ASC_NODE":"169.9657","OBJECT_NAME":"STARLINK-1453","COUNTRY_CODE":"US","REV_AT_EPOCH":"12117","PERIAPSIS":"545.834","SITE":"AFETR","ECCENTRICITY":"0.00020070","LAUNCH_DATE":"2020-06-04","TLE_LINE2":"2 45670  53.0539 169.9657 0002007  64.8910 295.2287 15.06396518121170","MEAN_ELEMENT_THEORY":"SGP4","MEAN_MOTION_DDOT":"0.0000000000000","EPHEMERIS_TYPE":"0","CENTER_NAME":"EARTH","MEAN_MOTION_DOT":"0.00000498","APOAPSIS":"548.614","DECAY_DATE":null,"NORAD_CAT_ID":"45670","MEAN_MOTION":"15.06396518","ARG_OF_PERICENTER":"64.8910","EPOCH":"2022-08-04T21:38:05.565120","MEAN_ANOMALY":"295.2287","TIME_SYSTEM":"UTC","SEMIMAJOR_AXIS":"6925.359","GP_ID":"209587786","RCS_SIZE":"LARGE","OBJECT_ID":"2020-035P","REF_FRAME":"TEME","CLASSIFICATION_TYPE":"U","INCLINATION":"53.0539","BSTAR":"0.00005233200000","OBJECT_TYPE":"PAYLOAD"},{"MEAN_MOTION":"15.06404770","ARG_OF_PERICENTER":"63.6815","EPOCH":"2022-08-04T21:55:20.942112","MEAN_ANOMALY":"296.4366","SEMIMAJOR_AXIS":"6925.334","TIME_SYSTEM":"UTC","RCS_SIZE":"LARGE","GP_ID":"209587536","INCLINATION":"53.0539","CLASSIFICATION_TYPE":"U","OBJECT_TYPE":"PAYLOAD","BSTAR":"0.00010085000000","OBJECT_ID":"2020-035Q","REF_FRAME":"TEME","ELEMENT_SET_NO":"999","FILE":"3529274","TLE_LINE1":"1 45671U 20035Q   22216.91343683  .00001221  00000-0  10085-3 0  9996","PERIOD":"95.592","OBJECT_NAME":"STARLINK-1454","PERIAPSIS":"545.902","COUNTRY_CODE":"US","REV_AT_EPOCH":"12085","RA_OF_ASC_NODE":"199.8955","MEAN_MOTION_DDOT":"0.0000000000000","LAUNCH_DATE":"2020-06-04","ECCENTRICITY":"0.00018730","SITE":"AFETR","MEAN_ELEMENT_THEORY":"SGP4","TLE_LINE2":"2 45671  53.0539 199.8955 0001873  63.6815 296.4366 15.06404770120850","NORAD_CAT_ID":"45671","CENTER_NAME":"EARTH","EPHEMERIS_TYPE":"0","DECAY_DATE":null,"APOAPSIS":"548.496","MEAN_MOTION_DOT":"0.00001221"},{"ARG_OF_PERICENTER":"52.9273","MEAN_MOTION":"15.06402518","TIME_SYSTEM":"UTC","SEMIMAJOR_AXIS":"6925.341","EPOCH":"2022-08-04T04:39:00.417312","MEAN_ANOMALY":"307.1896","RCS_SIZE":"LARGE","GP_ID":"209557572","OBJECT_TYPE":"PAYLOAD","BSTAR":"-0.00019528000000","CLASSIFICATION_TYPE":"U","INCLINATION":"53.0545","OBJECT_ID":"2020-035R","REF_FRAME":"TEME","ELEMENT_SET_NO":"999","PERIOD":"95.592","FILE":"3529060","TLE_LINE1":"1 45672U 20035R   22216.19375483 -.00003189  00000-0 -19528-3 0  9998","PERIAPSIS":"545.840","REV_AT_EPOCH":"12117","COUNTRY_CODE":"US","OBJECT_NAME":"STARLINK-1455","RA_OF_ASC_NODE":"173.1381","MEAN_MOTION_DDOT":"0.0000000000000","MEAN_ELEMENT_THEORY":"SGP4","TLE_LINE2":"2 45672  53.0545 173.1381 0001972  52.9273 307.1896 15.06402518121177","ECCENTRICITY":"0.00019720","LAUNCH_DATE":"2020-06-04","SITE":"AFETR","NORAD_CAT_ID":"45672","DECAY_DATE":null,"APOAPSIS":"548.572","MEAN_MOTION_DOT":"-0.00003189","CENTER_NAME":"EARTH","EPHEMERIS_TYPE":"0"},{"RA_OF_ASC_NODE":"202.5076","COUNTRY_CODE":"US","REV_AT_EPOCH":"12078","PERIAPSIS":"546.161","OBJECT_NAME":"STARLINK-1456","PERIOD":"95.593","TLE_LINE1":"1 45673U 20035S   22216.33106571 -.00000907  00000-0 -41998-4 0  9997","FILE":"3529060","ELEMENT_SET_NO":"999","MEAN_MOTION_DOT":"-0.00000907","DECAY_DATE":null,"APOAPSIS":"548.314","EPHEMERIS_TYPE":"0","CENTER_NAME":"EARTH","NORAD_CAT_ID":"45673","TLE_LINE2":"2 45673  53.0547 202.5076 0001554  65.7244 294.3907 15.06392157120787","MEAN_ELEMENT_THEORY":"SGP4","SITE":"AFETR","ECCENTRICITY":"0.00015540","LAUNCH_DATE":"2020-06-04","MEAN_MOTION_DDOT":"0.0000000000000","TIME_SYSTEM":"UTC","SEMIMAJOR_AXIS":"6925.373","MEAN_ANOMALY":"294.3907","EPOCH":"2022-08-04T07:56:44.077344","ARG_OF_PERICENTER":"65.7244","MEAN_MOTION":"15.06392157","REF_FRAME":"TEME","OBJECT_ID":"2020-035S","BSTAR":"-0.00004199800000","OBJECT_TYPE":"PAYLOAD","CLASSIFICATION_TYPE":"U","INCLINATION":"53.0547","GP_ID":"209556331","RCS_SIZE":"LARGE"},{"ELEMENT_SET_NO":"999","PERIOD":"95.593","FILE":"3529060","TLE_LINE1":"1 45674U 20035T   22216.33843863  .00001231  00000-0  10157-3 0  9991","PERIAPSIS":"546.230","COUNTRY_CODE":"US","REV_AT_EPOCH":"12075","OBJECT_NAME":"STARLINK-1457","RA_OF_ASC_NODE":"202.4803","MEAN_MOTION_DDOT":"0.0000000000000","MEAN_ELEMENT_THEORY":"SGP4","TLE_LINE2":"2 45674  53.0538 202.4803 0001451  78.7196 281.3956 15.06392940120758","LAUNCH_DATE":"2020-06-04","ECCENTRICITY":"0.00014510","SITE":"AFETR","NORAD_CAT_ID":"45674","APOAPSIS":"548.240","DECAY_DATE":null,"MEAN_MOTION_DOT":"0.00001231","CENTER_NAME":"EARTH","EPHEMERIS_TYPE":"0","ARG_OF_PERICENTER":"78.7196","MEAN_MOTION":"15.06392940","SEMIMAJOR_AXIS":"6925.370","TIME_SYSTEM":"UTC","MEAN_ANOMALY":"281.3956","EPOCH":"2022-08-04T08:07:21.097632","RCS_SIZE":"LARGE","GP_ID":"209557081","OBJECT_TYPE":"PAYLOAD","BSTAR":"0.00010157000000","INCLINATION":"53.0538","CLASSIFICATION_TYPE":"U","OBJECT_ID":"2020-035T","REF_FRAME":"TEME"}];
